{"fetched_at":"2026-03-29T16:36:15Z","count":15609,"tles":[{"name":"STARLINK-32046","line1":"1 60198U 24124R   26087.68652218 -.00000527  00000+0 -56717-5 0  9994","line2":"2 60198  53.1603 234.2922 0001099  67.9997 292.1121 15.30190971 98432","category":"Starlink"}]}