{
  "norad_id": 60198,
  "name": "STARLINK-32046",
  "history": [
    {
      "epoch": "2026-03-28T16:28:35.516352",
      "apogee_km": 475.9952834074211,
      "perigee_km": 474.4887736293722,
      "latitude_deg": 10.0654908809714,
      "longitude_deg": -94.29387072008103,
      "semi_major_axis_km": 6853.379028518397,
      "eccentricity": 0.00010991,
      "inclination_deg": 53.1603,
      "raan_deg": 234.2922,
      "arg_perigee_deg": 67.9997,
      "mean_anomaly_deg": 292.1121,
      "mean_motion_rev_day": 15.30190971
    }
  ]
}